{
  "type": "FeatureCollection",
  "features": [
    {
      "type": "Feature",
      "properties": {
        "norad_id": 29985,
        "name": "FENGYUN 1C DEB",
        "group": "fengyun-1c-debris",
        "lat": -72.99952060466129,
        "lon": 31.648608126018864,
        "alt_km": 860.1979003009883,
        "timestamp": "2025-12-12T11:38:31.684893+00:00",
        "meta_object_name": "FENGYUN 1C DEB",
        "meta_object_id": "1999-025LK",
        "meta_epoch": "2025-12-12T00:20:20.546016",
        "meta_mean_motion": 14.10323619,
        "meta_eccentricity": 0.0028097,
        "meta_inclination": 98.7107,
        "meta_ra_of_asc_node": 1.0973,
        "meta_arg_of_pericenter": 211.1073,
        "meta_mean_anomaly": 203.4495,
        "meta_ephemeris_type": 0,
        "meta_classification_type": "U",
        "meta_norad_cat_id": 29985,
        "meta_element_set_no": 999,
        "meta_rev_at_epoch": 97338,
        "meta_bstar": 4.7236e-05,
        "meta_mean_motion_dot": 4.1e-07,
        "meta_mean_motion_ddot": 0,
        "tle_line1": "1 29985U 99025LK  25346.01412669  .00000041  00000+0  47236-4 0  9997",
        "tle_line2": "2 29985  98.7107   1.0973 0028097 211.1073 203.4495 14.10323619973385"
      },
      "geometry": {
        "type": "Point",
        "coordinates": [
          31.648608126018864,
          -72.99952060466129
        ]
      }
    },
    {
      "type": "Feature",
      "properties": {
        "norad_id": 29986,
        "name": "FENGYUN 1C DEB",
        "group": "fengyun-1c-debris",
        "lat": -59.153452383885934,
        "lon": -141.96815977558018,
        "alt_km": 809.124889313035,
        "timestamp": "2025-12-12T11:38:31.684903+00:00",
        "meta_object_name": "FENGYUN 1C DEB",
        "meta_object_id": "1999-025LL",
        "meta_epoch": "2025-12-12T03:55:44.967360",
        "meta_mean_motion": 14.29211918,
        "meta_eccentricity": 0.0022755,
        "meta_inclination": 99.3978,
        "meta_ra_of_asc_node": 53.7854,
        "meta_arg_of_pericenter": 359.6101,
        "meta_mean_anomaly": 28.4388,
        "meta_ephemeris_type": 0,
        "meta_classification_type": "U",
        "meta_norad_cat_id": 29986,
        "meta_element_set_no": 999,
        "meta_rev_at_epoch": 97499,
        "meta_bstar": 0.0024347,
        "meta_mean_motion_dot": 6.157e-05,
        "meta_mean_motion_ddot": 0,
        "tle_line1": "1 29986U 99025LL  25346.16371490  .00006157  00000+0  24347-2 0  9990",
        "tle_line2": "2 29986  99.3978  53.7854 0022755 359.6101  28.4388 14.29211918974998"
      },
      "geometry": {
        "type": "Point",
        "coordinates": [
          -141.96815977558018,
          -59.153452383885934
        ]
      }
    },
    {
      "type": "Feature",
      "properties": {
        "norad_id": 29987,
        "name": "FENGYUN 1C DEB",
        "group": "fengyun-1c-debris",
        "lat": -28.772865340920422,
        "lon": 53.53550247166986,
        "alt_km": 797.6172883871777,
        "timestamp": "2025-12-12T11:38:31.684913+00:00",
        "meta_object_name": "FENGYUN 1C DEB",
        "meta_object_id": "1999-025LM",
        "meta_epoch": "2025-12-12T04:35:32.596800",
        "meta_mean_motion": 14.14536682,
        "meta_eccentricity": 0.00796,
        "meta_inclination": 98.8973,
        "meta_ra_of_asc_node": 238.1776,
        "meta_arg_of_pericenter": 235.2043,
        "meta_mean_anomaly": 279.246,
        "meta_ephemeris_type": 0,
        "meta_classification_type": "U",
        "meta_norad_cat_id": 29987,
        "meta_element_set_no": 999,
        "meta_rev_at_epoch": 96365,
        "meta_bstar": 0.0036211,
        "meta_mean_motion_dot": 7.124e-05,
        "meta_mean_motion_ddot": 0,
        "tle_line1": "1 29987U 99025LM  25346.19134950  .00007124  00000+0  36211-2 0  9990",
        "tle_line2": "2 29987  98.8973 238.1776 0079600 235.2043 279.2460 14.14536682963655"
      },
      "geometry": {
        "type": "Point",
        "coordinates": [
          53.53550247166986,
          -28.772865340920422
        ]
      }
    },
    {
      "type": "Feature",
      "properties": {
        "norad_id": 29988,
        "name": "FENGYUN 1C DEB",
        "group": "fengyun-1c-debris",
        "lat": -18.782342691130264,
        "lon": -92.60274508908196,
        "alt_km": 815.1310380264204,
        "timestamp": "2025-12-12T11:38:31.684923+00:00",
        "meta_object_name": "FENGYUN 1C DEB",
        "meta_object_id": "1999-025LN",
        "meta_epoch": "2025-12-12T04:26:14.253216",
        "meta_mean_motion": 14.50374587,
        "meta_eccentricity": 0.0120615,
        "meta_inclination": 98.6954,
        "meta_ra_of_asc_node": 90.0707,
        "meta_arg_of_pericenter": 19.9774,
        "meta_mean_anomaly": 52.3597,
        "meta_ephemeris_type": 0,
        "meta_classification_type": "U",
        "meta_norad_cat_id": 29988,
        "meta_element_set_no": 999,
        "meta_rev_at_epoch": 98059,
        "meta_bstar": 0.0023925,
        "meta_mean_motion_dot": 0.00010216,
        "meta_mean_motion_ddot": 0,
        "tle_line1": "1 29988U 99025LN  25346.18488719  .00010216  00000+0  23925-2 0  9999",
        "tle_line2": "2 29988  98.6954  90.0707 0120615  19.9774  52.3597 14.50374587980590"
      },
      "geometry": {
        "type": "Point",
        "coordinates": [
          -92.60274508908196,
          -18.782342691130264
        ]
      }
    },
    {
      "type": "Feature",
      "properties": {
        "norad_id": 29989,
        "name": "FENGYUN 1C DEB",
        "group": "fengyun-1c-debris",
        "lat": 32.178314135601155,
        "lon": 150.789743171027,
        "alt_km": 778.7122172208828,
        "timestamp": "2025-12-12T11:38:31.684933+00:00",
        "meta_object_name": "FENGYUN 1C DEB",
        "meta_object_id": "1999-025LP",
        "meta_epoch": "2025-12-12T04:27:26.155296",
        "meta_mean_motion": 14.15818572,
        "meta_eccentricity": 0.0123201,
        "meta_inclination": 98.6678,
        "meta_ra_of_asc_node": 324.9907,
        "meta_arg_of_pericenter": 197.2453,
        "meta_mean_anomaly": 226.1115,
        "meta_ephemeris_type": 0,
        "meta_classification_type": "U",
        "meta_norad_cat_id": 29989,
        "meta_element_set_no": 999,
        "meta_rev_at_epoch": 97603,
        "meta_bstar": 0.00021494,
        "meta_mean_motion_dot": 4.12e-06,
        "meta_mean_motion_ddot": 0,
        "tle_line1": "1 29989U 99025LP  25346.18571939  .00000412  00000+0  21494-3 0  9994",
        "tle_line2": "2 29989  98.6678 324.9907 0123201 197.2453 226.1115 14.15818572976032"
      },
      "geometry": {
        "type": "Point",
        "coordinates": [
          150.789743171027,
          32.178314135601155
        ]
      }
    },
    {
      "type": "Feature",
      "properties": {
        "norad_id": 29992,
        "name": "FENGYUN 1C DEB",
        "group": "fengyun-1c-debris",
        "lat": 14.599705661056518,
        "lon": -20.66741843967902,
        "alt_km": 912.0629259937596,
        "timestamp": "2025-12-12T11:38:31.684943+00:00",
        "meta_object_name": "FENGYUN 1C DEB",
        "meta_object_id": "1999-025LS",
        "meta_epoch": "2025-12-11T23:58:40.714176",
        "meta_mean_motion": 14.11611092,
        "meta_eccentricity": 0.0088831,
        "meta_inclination": 98.73,
        "meta_ra_of_asc_node": 341.1535,
        "meta_arg_of_pericenter": 169.7379,
        "meta_mean_anomaly": 257.1957,
        "meta_ephemeris_type": 0,
        "meta_classification_type": "U",
        "meta_norad_cat_id": 29992,
        "meta_element_set_no": 999,
        "meta_rev_at_epoch": 97377,
        "meta_bstar": 0.0001558,
        "meta_mean_motion_dot": 2.51e-06,
        "meta_mean_motion_ddot": 0,
        "tle_line1": "1 29992U 99025LS  25345.99908234  .00000251  00000+0  15580-3 0  9998",
        "tle_line2": "2 29992  98.7300 341.1535 0088831 169.7379 257.1957 14.11611092973777"
      },
      "geometry": {
        "type": "Point",
        "coordinates": [
          -20.66741843967902,
          14.599705661056518
        ]
      }
    },
    {
      "type": "Feature",
      "properties": {
        "norad_id": 29993,
        "name": "FENGYUN 1C DEB",
        "group": "fengyun-1c-debris",
        "lat": -18.896863091815266,
        "lon": 26.262389287283973,
        "alt_km": 845.5219915102434,
        "timestamp": "2025-12-12T11:38:31.684953+00:00",
        "meta_object_name": "FENGYUN 1C DEB",
        "meta_object_id": "1999-025LT",
        "meta_epoch": "2025-12-12T01:30:01.246752",
        "meta_mean_motion": 14.08147819,
        "meta_eccentricity": 0.0038498,
        "meta_inclination": 98.7934,
        "meta_ra_of_asc_node": 22.8134,
        "meta_arg_of_pericenter": 316.6715,
        "meta_mean_anomaly": 43.1429,
        "meta_ephemeris_type": 0,
        "meta_classification_type": "U",
        "meta_norad_cat_id": 29993,
        "meta_element_set_no": 999,
        "meta_rev_at_epoch": 97160,
        "meta_bstar": 7.826e-05,
        "meta_mean_motion_dot": 9.1e-07,
        "meta_mean_motion_ddot": 0,
        "tle_line1": "1 29993U 99025LT  25346.06251443  .00000091  00000+0  78260-4 0  9998",
        "tle_line2": "2 29993  98.7934  22.8134 0038498 316.6715  43.1429 14.08147819971604"
      },
      "geometry": {
        "type": "Point",
        "coordinates": [
          26.262389287283973,
          -18.896863091815266
        ]
      }
    }
  ]
}